2026-134A               
1 69538U 26134A   26194.64065377  .00002420  00000+0  15490-3 0  9996
2 69538  97.7005 264.8493 0015943 175.9385 184.1976 15.09452984  4307
2026-134B               
1 69539U 26134B   26194.63770126  .00002437  00000+0  15528-3 0  9991
2 69539  97.6978 264.8443 0016057 178.3909 181.7374 15.09609403  4290
2026-134C               
1 69540U 26134C   26194.63710287  .00002498  00000+0  15898-3 0  9992
2 69540  97.6986 264.8472 0015542 179.5077 180.6169 15.09641736  4295
2026-134D               
1 69541U 26134D   26194.63602035  .00002495  00000+0  15851-3 0  9990
2 69541  97.7024 264.8626 0016579 179.5104 180.6144 15.09699432  4292
2026-134E               
1 69542U 26134E   26194.56932791  .00002449  00000+0  15560-3 0  9994
2 69542  97.7044 264.8033 0016310 180.2386 179.8837 15.09720677  4285
2026-134F               
1 69543U 26134F   26194.63474455  .00002505  00000+0  15888-3 0  9997
2 69543  97.6997 264.8543 0015607 181.7327 178.3850 15.09766365  4291
2026-134G               
1 69544U 26134G   26194.63315929  .00002655  00000+0  16771-3 0  9996
2 69544  97.7041 264.8718 0016052 182.5157 177.5994 15.09851680  4297
2026-134H               
1 69545U 26134H   26194.69818397  .00002607  00000+0  16448-3 0  9998
2 69545  97.7025 264.9352 0015918 183.7041 176.4073 15.09918402  4292
STARLINK-37880          
1 69546U 26135A   26196.52472660  .00029070  00000+0  53369-3 0  9999
2 69546  97.2848 224.8216 0000965 284.9243  75.1902 15.49216181  4711
STARLINK-37881          
1 69547U 26135B   26196.58335648  .00032976  00000+0  60561-3 0  9991
2 69547  97.2842 224.9739 0001242  74.0409 110.2380 15.49181675  5865
STARLINK-37265          
1 69548U 26135C   26196.58335648  .00031352  00000+0  57592-3 0  9999
2 69548  97.2844 225.0550 0001569  88.7233 287.2647 15.49184428  5871
STARLINK-37871          
1 69549U 26135D   26196.58335648  .00050952  00000+0  93236-3 0  9992
2 69549  97.2846 224.9668 0001586  76.5987  87.3917 15.49191612  5874
STARLINK-37865          
1 69550U 26135E   26196.58335648  .00034434  00000+0  63244-3 0  9997
2 69550  97.2841 224.9768 0001472  99.0197  92.9368 15.49170116  5877
STARLINK-37862          
1 69551U 26135F   26196.58335648  .00037212  00000+0  68346-3 0  9993
2 69551  97.2841 225.0509 0001403  96.1110 263.2522 15.49154271  5879
STARLINK-37861          
1 69552U 26135G   26196.58335648  .00047462  00000+0  86842-3 0  9993
2 69552  97.2838 225.0023 0000780 151.1209  95.8687 15.49211062  5878
STARLINK-37859          
1 69553U 26135H   26196.58335648  .00043479  00000+0  79670-3 0  9999
2 69553  97.2844 225.0189 0001532  90.7771 195.2968 15.49188650  5870
STARLINK-37860          
1 69554U 26135J   26196.58335648  .00029660  00000+0  54512-3 0  9994
2 69554  97.2842 225.0565 0000627 149.0182 226.2727 15.49181045  5874
STARLINK-37858          
1 69555U 26135K   26196.58335648  .00031960  00000+0  58679-3 0  9999
2 69555  97.2845 225.0430 0001508 102.7416 240.6765 15.49195092  5873
STARLINK-37927          
1 69556U 26135L   26196.58335648  .00047546  00000+0  87072-3 0  9996
2 69556  97.2837 224.9966 0001166  99.4774 132.8695 15.49185704  5879
STARLINK-37929          
1 69557U 26135M   26196.58335648  .00038331  00000+0  70315-3 0  9991
2 69557  97.2843 224.9537 0001514  96.1427  39.2439 15.49183109  5870
STARLINK-37954          
1 69558U 26135N   26196.58335648  .00050138  00000+0  91771-3 0  9990
2 69558  97.2844 224.9581 0000750 104.3609  37.8494 15.49188589  5878
STARLINK-37958          
1 69559U 26135P   26196.58335648  .00046534  00000+0  85296-3 0  9991
2 69559  97.2849 225.1127 0000949 111.0781  37.7792 15.49164649  5870
STARLINK-37950          
1 69560U 26135Q   26196.58335648  .00031616  00000+0  58081-3 0  9990
2 69560  97.2844 225.0548 0001284  98.5618 274.4741 15.49181394  5874
STARLINK-37952          
1 69561U 26135R   26196.58335648  .00034201  00000+0  62797-3 0  9993
2 69561  97.2834 225.0068 0001419  88.3207 170.7092 15.49180025  5879
STARLINK-37935          
1 69562U 26135S   26196.03939809  .00025293  00000+0  46488-3 0  9993
2 69562  97.2840 224.4120 0001262  93.2850 266.8546 15.49209897  4648
STARLINK-37936          
1 69563U 26135T   26196.58335648  .00040426  00000+0  74131-3 0  9996
2 69563  97.2835 224.9946 0001745  91.7784 138.0179 15.49182333  5872
STARLINK-37932          
1 69564U 26135U   26196.58335648  .00040719  00000+0  74649-3 0  9996
2 69564  97.2844 225.0940 0000806  89.5697  11.7068 15.49189491  5870
STARLINK-37916          
1 69565U 26135V   26196.58335648  .00047235  00000+0  86513-3 0  9990
2 69565  97.2841 225.0533 0001291  98.6654 266.4044 15.49183355  5875
STARLINK-37909          
1 69566U 26135W   26196.58335648  .00045004  00000+0  82523-3 0  9990
2 69566  97.2843 225.1575 0001161  95.5863 156.7505 15.49161133  5872
STARLINK-37934          
1 69567U 26135X   26196.58335648  .00049753  00000+0  91061-3 0  9993
2 69567  97.2841 225.0557 0000826  86.4970 281.3753 15.49192032  5877
